{
  "links" : {
    "next" : "https://api.nasa.gov/neo/rest/v1/feed?start_date=2011-08-23&end_date=2011-08-23&detailed=true&api_key=t0TVs3DtDT2H8Oy2Zy8m2eVrNsAVKAexjcZXUckd",
    "prev" : "https://api.nasa.gov/neo/rest/v1/feed?start_date=2011-08-21&end_date=2011-08-21&detailed=true&api_key=t0TVs3DtDT2H8Oy2Zy8m2eVrNsAVKAexjcZXUckd",
    "self" : "https://api.nasa.gov/neo/rest/v1/feed?start_date=2011-08-22&end_date=2011-08-22&detailed=true&api_key=t0TVs3DtDT2H8Oy2Zy8m2eVrNsAVKAexjcZXUckd"
  },
  "element_count" : 7,
  "near_earth_objects" : {
    "2011-08-22" : [ {
      "links" : {
        "self" : "https://api.nasa.gov/neo/rest/v1/neo/3559600?api_key=t0TVs3DtDT2H8Oy2Zy8m2eVrNsAVKAexjcZXUckd"
      },
      "neo_reference_id" : "3559600",
      "name" : "(2011 EP40)",
      "nasa_jpl_url" : "http://ssd.jpl.nasa.gov/sbdb.cgi?sstr=3559600",
      "absolute_magnitude_h" : 21.0,
      "estimated_diameter" : {
        "kilometers" : {
          "estimated_diameter_min" : 0.1677084622,
          "estimated_diameter_max" : 0.3750075218
        },
        "meters" : {
          "estimated_diameter_min" : 167.7084621628,
          "estimated_diameter_max" : 375.0075217981
        },
        "miles" : {
          "estimated_diameter_min" : 0.1042091748,
          "estimated_diameter_max" : 0.2330187988
        },
        "feet" : {
          "estimated_diameter_min" : 550.2246310023,
          "estimated_diameter_max" : 1230.3396778159
        }
      },
      "is_potentially_hazardous_asteroid" : false,
      "close_approach_data" : [ {
        "close_approach_date" : "2011-08-22",
        "epoch_date_close_approach" : 1313996400000,
        "relative_velocity" : {
          "kilometers_per_second" : "13.0565870407",
          "kilometers_per_hour" : "47003.7133465546",
          "miles_per_hour" : "29206.2795513633"
        },
        "miss_distance" : {
          "astronomical" : "0.2336817725",
          "lunar" : "90.9022064209",
          "kilometers" : "34958296",
          "miles" : "21722078"
        },
        "orbiting_body" : "Earth"
      } ],
      "orbital_data" : {
        "orbit_id" : "6",
        "orbit_determination_date" : "2017-04-06 08:54:09",
        "orbit_uncertainty" : "8",
        "minimum_orbit_intersection" : ".233091",
        "jupiter_tisserand_invariant" : "5.655",
        "epoch_osculation" : "2455634.5",
        "eccentricity" : ".2796330890488376",
        "semi_major_axis" : "1.080262925709736",
        "inclination" : "16.62728219755782",
        "ascending_node_longitude" : "145.16265509",
        "orbital_period" : "410.1027052335909",
        "perihelion_distance" : ".7781856668085873",
        "perihelion_argument" : "180.9093765359106",
        "aphelion_distance" : "1.382340184610884",
        "perihelion_time" : "2455794.370937707062",
        "mean_anomaly" : "219.6606731921938",
        "mean_motion" : ".8778288838522709",
        "equinox" : "J2000"
      }
    }, {
      "links" : {
        "self" : "https://api.nasa.gov/neo/rest/v1/neo/3576675?api_key=t0TVs3DtDT2H8Oy2Zy8m2eVrNsAVKAexjcZXUckd"
      },
      "neo_reference_id" : "3576675",
      "name" : "(2011 QE14)",
      "nasa_jpl_url" : "http://ssd.jpl.nasa.gov/sbdb.cgi?sstr=3576675",
      "absolute_magnitude_h" : 20.8,
      "estimated_diameter" : {
        "kilometers" : {
          "estimated_diameter_min" : 0.1838886721,
          "estimated_diameter_max" : 0.411187571
        },
        "meters" : {
          "estimated_diameter_min" : 183.8886720703,
          "estimated_diameter_max" : 411.1875710413
        },
        "miles" : {
          "estimated_diameter_min" : 0.1142630881,
          "estimated_diameter_max" : 0.2555000322
        },
        "feet" : {
          "estimated_diameter_min" : 603.309310875,
          "estimated_diameter_max" : 1349.040630575
        }
      },
      "is_potentially_hazardous_asteroid" : false,
      "close_approach_data" : [ {
        "close_approach_date" : "2011-08-22",
        "epoch_date_close_approach" : 1313996400000,
        "relative_velocity" : {
          "kilometers_per_second" : "8.7147522801",
          "kilometers_per_hour" : "31373.1082084868",
          "miles_per_hour" : "19494.0293754345"
        },
        "miss_distance" : {
          "astronomical" : "0.1894494359",
          "lunar" : "73.6958312988",
          "kilometers" : "28341232",
          "miles" : "17610424"
        },
        "orbiting_body" : "Earth"
      } ],
      "orbital_data" : {
        "orbit_id" : "17",
        "orbit_determination_date" : "2017-04-06 08:52:58",
        "orbit_uncertainty" : "5",
        "minimum_orbit_intersection" : ".124678",
        "jupiter_tisserand_invariant" : "3.416",
        "epoch_osculation" : "2458000.5",
        "eccentricity" : ".5032446144727296",
        "semi_major_axis" : "2.277930078835843",
        "inclination" : "8.052994973811307",
        "ascending_node_longitude" : "155.399516870129",
        "orbital_period" : "1255.766839831519",
        "perihelion_distance" : "1.131574034516265",
        "perihelion_argument" : "189.5348580616639",
        "aphelion_distance" : "3.424286123155421",
        "perihelion_time" : "2458311.823633979451",
        "mean_anomaly" : "270.7505432715208",
        "mean_motion" : ".2866774217802245",
        "equinox" : "J2000"
      }
    }, {
      "links" : {
        "self" : "https://api.nasa.gov/neo/rest/v1/neo/3752416?api_key=t0TVs3DtDT2H8Oy2Zy8m2eVrNsAVKAexjcZXUckd"
      },
      "neo_reference_id" : "3752416",
      "name" : "(2016 HM2)",
      "nasa_jpl_url" : "http://ssd.jpl.nasa.gov/sbdb.cgi?sstr=3752416",
      "absolute_magnitude_h" : 21.0,
      "estimated_diameter" : {
        "kilometers" : {
          "estimated_diameter_min" : 0.1677084622,
          "estimated_diameter_max" : 0.3750075218
        },
        "meters" : {
          "estimated_diameter_min" : 167.7084621628,
          "estimated_diameter_max" : 375.0075217981
        },
        "miles" : {
          "estimated_diameter_min" : 0.1042091748,
          "estimated_diameter_max" : 0.2330187988
        },
        "feet" : {
          "estimated_diameter_min" : 550.2246310023,
          "estimated_diameter_max" : 1230.3396778159
        }
      },
      "is_potentially_hazardous_asteroid" : false,
      "close_approach_data" : [ {
        "close_approach_date" : "2011-08-22",
        "epoch_date_close_approach" : 1313996400000,
        "relative_velocity" : {
          "kilometers_per_second" : "6.0229192093",
          "kilometers_per_hour" : "21682.5091534316",
          "miles_per_hour" : "13472.6679792531"
        },
        "miss_distance" : {
          "astronomical" : "0.4497564832",
          "lunar" : "174.9552612305",
          "kilometers" : "67282608",
          "miles" : "41807476"
        },
        "orbiting_body" : "Earth"
      } ],
      "orbital_data" : {
        "orbit_id" : "24",
        "orbit_determination_date" : "2017-04-06 08:26:23",
        "orbit_uncertainty" : "4",
        "minimum_orbit_intersection" : ".272729",
        "jupiter_tisserand_invariant" : "4.660",
        "epoch_osculation" : "2458000.5",
        "eccentricity" : ".1049938939523814",
        "semi_major_axis" : "1.42751546841448",
        "inclination" : "13.14909252084956",
        "ascending_node_longitude" : "107.9462457410154",
        "orbital_period" : "622.9736264842737",
        "perihelion_distance" : "1.277635060708386",
        "perihelion_argument" : "149.6000506837157",
        "aphelion_distance" : "1.577395876120574",
        "perihelion_time" : "2458171.133832399675",
        "mean_anomaly" : "261.3952163423829",
        "mean_motion" : ".5778735803498541",
        "equinox" : "J2000"
      }
    } ]
  }
}